From: horizons@ssd.jpl.nasa.gov (Horizons Ephemeris System)
Subject: [Horizons] SMALL BODY #C(500@10)_T(LINEAR (C/2011 J3)) (1/1)
Date: February 14, 2021 at 6:45:46 PM PST

Automated mail xmit by MAIL_REQUEST, PID= 7423 Sun Feb 14 18:45:46 2021
++++++++++++++++++++++++++++++++ (part 1 of 1)  +++++++++++++++++++++++++++++++
*******************************************************************************
JPL/HORIZONS                 LINEAR (C/2011 J3)            2021-Feb-14 18:45:46
Rec #:90003983 (+COV) Soln.date: 2014-Jun-13_19:44:43       # obs: 83 (66 days)

IAU76/J2000 helio. ecliptic osc. elements (au, days, deg., period=Julian yrs):

 EPOCH=  2455711.5 ! 2011-May-30.0000000 (TDB)    RMSW= n.a.
  EC= .9258284402393274   QR= 1.450992159551614   TP= 2455585.8877876475
  OM= 21.51231515705576   W= 27.84491744751259    IN= 114.7123652374121
  A= 19.56264859783847    MA= 1.43085115334353    ADIST= 37.67430503612533
  PER= 86.52661121491001  N= .011391019           ANGMOM= .028755622
  DAN= 1.53652            DDN= 15.40709           L= 9.059067199999999
  B= 25.1066061           MOID= .51663202         TP= 2011-Jan-24.3877876475

Comet physical (GM= km^3/s^2; RAD= km):
  GM= n.a.                RAD= n.a.
  M1=  13.1     M2=  16.5     k1=  14.    k2=  5.      PHCOF=  .030

COMET comments 
1: soln ref.= JPL#11, data arc: 2011-05-14 to 2011-07-19
2: k1=14., k2=5., phase coef.=0.03;
*******************************************************************************


*******************************************************************************
Ephemeris / MAIL_REQUEST Sun Feb 14 18:45:46 2021 Pasadena, USA  / Horizons
*******************************************************************************
Target body name: LINEAR (C/2011 J3)              {source: JPL#11}
Center body name: Sun (10)                        {source: DE431}
Center-site name: BODY CENTER
*******************************************************************************
Start time      : A.D. 1990-Jan-01 00:00:00.0000 TDB
Stop  time      : A.D. 2020-Dec-31 00:00:00.0000 TDB
Step-size       : 200 steps
*******************************************************************************
Center geodetic : 0.00000000,0.00000000,0.0000000 {E-lon(deg),Lat(deg),Alt(km)}
Center cylindric: 0.00000000,0.00000000,0.0000000 {E-lon(deg),Dxy(km),Dz(km)}
Center radii    : 696000.0 x 696000.0 x 696000.0 k{Equator, meridian, pole}    
Small perturbers: Yes                             {source: SB431-N16}
Output units    : AU-D
Output type     : GEOMETRIC cartesian states
Output format   : 6 (LT, range, and range-rate)
Reference frame : Ecliptic of J2000.0
*******************************************************************************
Initial IAU76/J2000 heliocentric ecliptic osculating elements (au, days, deg.):
 EPOCH=  2455711.5 ! 2011-May-30.0000000 (TDB)    RMSW= n.a.                  
  EC= .9258284402393274   QR= 1.450992159551614   TP= 2455585.8877876475      
  OM= 21.51231515705576   W= 27.84491744751259    IN= 114.7123652374121       
 Equivalent ICRF heliocentric equatorial cartesian coordinates (au, au/d):
  X=-4.712992371347413E-02  Y=-1.685267639578006E+00  Z= 1.404392400561413E+00
 VX=-1.254888298205976E-02 VY=-9.582327553247942E-03 VZ= 2.301316138999475E-03
Comet physical (GM= km^3/s^2; RAD= km):                                        
  GM= n.a.                RAD= n.a.                                           
  M1=  13.1     M2=  16.5     k1=  14.    k2=  5.      PHCOF=  .030           
*******************************************************************************
           JDTDB,            Calendar Date (TDB),                     LT,                     RG,                     RR,
**************************************************************************************************************************
$$SOE
2459214.500000000, A.D. 2020-Dec-31 00:00:00.0000,  1.206971155483112E-01,  2.089805773645269E+01,  3.350719884994251E-03,
